GLOBALSTAR M094         
1 39074U 13005C   26008.42186802 -.00000080  00000+0  13110-3 0  9996
2 39074  51.9965 277.2405 0000920  47.8494 312.2451 12.62265767598299
GLOBALSTAR M096         
1 39075U 13005D   26008.35566936 -.00000082  00000+0  12407-3 0  9999
2 39075  52.0096 326.1137 0000591  30.7760 329.3141 12.62269784597202
GLOBALSTAR M078         
1 39076U 13005E   26008.48797810 -.00000012  00000+0  51128-3 0  9997
2 39076  51.9885  49.9429 0000512 259.7128 100.3681 12.62272592595840
GLOBALSTAR M095         
1 39077U 13005F   26008.35596243 -.00000093  00000+0  58695-4 0  9997
2 39077  52.0096  47.7222 0000099   9.0678 351.0191 12.62267682595687
GLOBALSTAR M087         
1 52888U 22064A   26008.52746325 -.00000114  00000+0 -59247-4 0  9993
2 52888  51.9971 188.5294 0000993  77.9723 282.1255 12.62262295170974
